CS2                     
1 49262U 21088C   26068.73485932  .00018033  00000+0  56178-3 0  9999
2 49262  97.3928 134.2907 0011637  82.3491 277.9072 15.33255930245263
STARLINK-32453          
1 61671U 24193L   26068.46538319 -.00001468  00000+0 -37467-4 0  9992
2 61671  53.1602  91.9507 0001219  89.0417 271.0724 15.30174734 76497
